STARLINK-3138_new
1 19430C 21104Y   21326.14775083 -.00861288  00000-0 -32064-2 0  3263
2 19430  53.2177  90.8250 0024510  64.8719 236.9112 15.87633641    17
STARLINK-3138_old
1 29430C 21104Y   21325.19062414 -.00818341  00000-0 -27483-2 0  3254
2 29430  53.2175  95.6692 0032117  63.7251 161.5348 15.89260791    17
